{
 "cells": [
  {
   "cell_type": "code",
   "execution_count": 2,
   "id": "b7c679a9",
   "metadata": {},
   "outputs": [
    {
     "name": "stdout",
     "output_type": "stream",
     "text": [
      "=== Running Consensus Test ===\n"
     ]
    },
    {
     "ename": "AttributeError",
     "evalue": "'SatelliteNode' object has no attribute 'model'",
     "output_type": "error",
     "traceback": [
      "\u001b[31m---------------------------------------------------------------------------\u001b[39m",
      "\u001b[31mAttributeError\u001b[39m                            Traceback (most recent call last)",
      "\u001b[36mCell\u001b[39m\u001b[36m \u001b[39m\u001b[32mIn[2]\u001b[39m\u001b[32m, line 106\u001b[39m\n\u001b[32m    103\u001b[39m     \u001b[38;5;28mprint\u001b[39m(\u001b[33m\"\u001b[39m\u001b[33mPenultimate Tx:\u001b[39m\u001b[33m\"\u001b[39m)\n\u001b[32m    104\u001b[39m     \u001b[38;5;28mprint\u001b[39m(test_dag.ledger[penultimate_index])\n\u001b[32m--> \u001b[39m\u001b[32m106\u001b[39m \u001b[43mrun_consensus_test\u001b[49m\u001b[43m(\u001b[49m\u001b[43m)\u001b[49m\n",
      "\u001b[36mCell\u001b[39m\u001b[36m \u001b[39m\u001b[32mIn[2]\u001b[39m\u001b[32m, line 89\u001b[39m, in \u001b[36mrun_consensus_test\u001b[39m\u001b[34m()\u001b[39m\n\u001b[32m     86\u001b[39m poise = ConsensusMechanism()\n\u001b[32m     88\u001b[39m \u001b[38;5;66;03m# Run consensus on a single satellite observation\u001b[39;00m\n\u001b[32m---> \u001b[39m\u001b[32m89\u001b[39m consensus_result = \u001b[43mpoise\u001b[49m\u001b[43m.\u001b[49m\u001b[43mproof_of_inter_satellite_evaluation\u001b[49m\u001b[43m(\u001b[49m\n\u001b[32m     90\u001b[39m \u001b[43m    \u001b[49m\u001b[43mdag\u001b[49m\u001b[43m=\u001b[49m\u001b[43mtest_dag\u001b[49m\u001b[43m,\u001b[49m\n\u001b[32m     91\u001b[39m \u001b[43m    \u001b[49m\u001b[43msat_node\u001b[49m\u001b[43m=\u001b[49m\u001b[43mtest_satellite\u001b[49m\u001b[43m,\u001b[49m\n\u001b[32m     92\u001b[39m \u001b[43m    \u001b[49m\u001b[43mtransaction\u001b[49m\u001b[43m=\u001b[49m\u001b[43mtest_transaction\u001b[49m\n\u001b[32m     93\u001b[39m \u001b[43m\u001b[49m\u001b[43m)\u001b[49m\n\u001b[32m     95\u001b[39m \u001b[38;5;66;03m# Output result\u001b[39;00m\n\u001b[32m     96\u001b[39m \u001b[38;5;28mprint\u001b[39m(\u001b[33mf\u001b[39m\u001b[33m\"\u001b[39m\u001b[38;5;130;01m\\n\u001b[39;00m\u001b[33mConsensus reached: \u001b[39m\u001b[38;5;132;01m{\u001b[39;00mconsensus_result\u001b[38;5;132;01m}\u001b[39;00m\u001b[33m\"\u001b[39m)\n",
      "\u001b[36mFile \u001b[39m\u001b[32mc:\\Users\\xbb24107\\OneDrive - University of Strathclyde\\Documents\\git\\accord\\src\\consensus_mech.py:214\u001b[39m, in \u001b[36mConsensusMechanism.proof_of_inter_satellite_evaluation\u001b[39m\u001b[34m(self, dag, sat_node, transaction)\u001b[39m\n\u001b[32m    207\u001b[39m     \u001b[38;5;28;01mreturn\u001b[39;00m \u001b[38;5;28;01mFalse\u001b[39;00m\n\u001b[32m    209\u001b[39m \u001b[38;5;66;03m# 4) TODO Check if satellite has been witnessed before\u001b[39;00m\n\u001b[32m    210\u001b[39m \u001b[38;5;66;03m#4a if yes, does this data agree with other data/ is it correct?\u001b[39;00m\n\u001b[32m    211\u001b[39m \u001b[38;5;66;03m# Assign correctness score -> affects transaction\u001b[39;00m\n\u001b[32m    212\u001b[39m \u001b[38;5;66;03m#  This is going to be very tricky. How do I get this data?? Where do I\u001b[39;00m\n\u001b[32m    213\u001b[39m \u001b[38;5;66;03m# store it? Do I want this to tie in to how parents are selected?\u001b[39;00m\n\u001b[32m--> \u001b[39m\u001b[32m214\u001b[39m correctness_score = \u001b[38;5;28;43mself\u001b[39;49m\u001b[43m.\u001b[49m\u001b[43mget_correctness_score\u001b[49m\u001b[43m(\u001b[49m\u001b[43msat_node\u001b[49m\u001b[43m,\u001b[49m\u001b[43m \u001b[49m\u001b[43mdag\u001b[49m\u001b[43m)\u001b[49m\n\u001b[32m    216\u001b[39m \u001b[38;5;66;03m# 5) TODO is sensor data accurate (done regardless of previous witnessing).\u001b[39;00m\n\u001b[32m    217\u001b[39m \u001b[38;5;66;03m# Assign accuracy score -> affects transaction and node reputation\u001b[39;00m\n\u001b[32m    218\u001b[39m \u001b[38;5;66;03m# Again, might be tricky. Probability distribution here? Like in the PowerGraph paper?\u001b[39;00m\n\u001b[32m    219\u001b[39m accuracy_score = \u001b[38;5;28mself\u001b[39m.estimate_accuracy(sat)\n",
      "\u001b[36mFile \u001b[39m\u001b[32mc:\\Users\\xbb24107\\OneDrive - University of Strathclyde\\Documents\\git\\accord\\src\\consensus_mech.py:116\u001b[39m, in \u001b[36mConsensusMechanism.get_correctness_score\u001b[39m\u001b[34m(self, sat, dag)\u001b[39m\n\u001b[32m    113\u001b[39m \u001b[38;5;28;01mtry\u001b[39;00m:\n\u001b[32m    114\u001b[39m     past_data = json.loads(tx.tx_data)\n\u001b[32m    115\u001b[39m     \u001b[38;5;28;01mif\u001b[39;00m \u001b[38;5;28misinstance\u001b[39m(past_data, \u001b[38;5;28mdict\u001b[39m) \u001b[38;5;129;01mand\u001b[39;00m \\\n\u001b[32m--> \u001b[39m\u001b[32m116\u001b[39m         past_data.get(\u001b[33m\"\u001b[39m\u001b[33mOBJECT_ID\u001b[39m\u001b[33m\"\u001b[39m) == \u001b[43msat\u001b[49m\u001b[43m.\u001b[49m\u001b[43mmodel\u001b[49m.satnumid:\n\u001b[32m    117\u001b[39m         matches.append(past_data)\n\u001b[32m    118\u001b[39m \u001b[38;5;28;01mexcept\u001b[39;00m (json.JSONDecodeError, \u001b[38;5;167;01mTypeError\u001b[39;00m):\n",
      "\u001b[31mAttributeError\u001b[39m: 'SatelliteNode' object has no attribute 'model'"
     ]
    }
   ],
   "source": [
    "\"\"\"\n",
    "The Autonomous Cooperative Consensus Orbit Determination (ACCORD) framework.\n",
    "Author: Beth Probert\n",
    "Email: beth.probert@strath.ac.uk\n",
    "\n",
    "Copyright (C) 2025 Applied Space Technology Laboratory\n",
    "\n",
    "This program is free software: you can redistribute it and/or modify\n",
    "it under the terms of the GNU General Public License as published by\n",
    "the Free Software Foundation, either version 3 of the License, or\n",
    "(at your option) any later version.\n",
    "\n",
    "This program is distributed in the hope that it will be useful,\n",
    "but WITHOUT ANY WARRANTY; without even the implied warranty of\n",
    "MERCHANTABILITY or FITNESS FOR A PARTICULAR PURPOSE.  See the\n",
    "GNU General Public License for more details.\n",
    "\n",
    "You should have received a copy of the GNU General Public License\n",
    "along with this program.  If not, see <http://www.gnu.org/licenses/>.\n",
    "\n",
    "\"\"\"\n",
    "\n",
    "import json\n",
    "import numpy as np\n",
    "from datetime import datetime, timedelta\n",
    "from src.consensus_mech import ConsensusMechanism\n",
    "from src.dag import DAG\n",
    "from src.satellite_node import SatelliteNode\n",
    "from src.transaction import Transaction, TransactionMetadata\n",
    "from src.utils import load_json_data\n",
    "\n",
    "\n",
    "# Tester demo function\n",
    "def run_consensus_test():\n",
    "    # Number of transactions must be >= 3 for consensus to be possible\n",
    "    n_tx = 3\n",
    "    print(\"=== Running Consensus Test ===\")\n",
    "\n",
    "    # Load observation data from your JSON file\n",
    "    satellites = load_json_data(\"od_data.json\")\n",
    "    if not satellites:\n",
    "        print(\"No satellite data found.\")\n",
    "        return\n",
    "\n",
    "    # Setup\n",
    "    test_satellite = SatelliteNode(node_id=\"SAT-001\")\n",
    "    test_dag = DAG()\n",
    "    base_sat = satellites[0]\n",
    "\n",
    "    # Add other transactions with some random noise\n",
    "    # TODo - test with bigger variants\n",
    "    for i in range(n_tx):\n",
    "        # Simulate noise in observation\n",
    "        noise = {\n",
    "            \"mean_motion\": np.random.normal(0, 0.01),       # rev/day\n",
    "            \"eccentricity\": np.random.normal(0, 0.00002),    # unitless\n",
    "            \"inclination\": np.random.normal(0, 0.05),        # degrees\n",
    "            \"epoch_jitter\": np.random.normal(0, 2)           # seconds\n",
    "        }\n",
    "\n",
    "        observed_epoch = base_sat.epoch.utc_datetime() + timedelta(seconds=noise[\"epoch_jitter\"])\n",
    "\n",
    "        dummy_tx = Transaction(\n",
    "            sender_address=f\"NODE-{i}\",\n",
    "            recipient_address=\"GROUND\",\n",
    "            sender_private_key=\"dummy_key\",\n",
    "            metadata=TransactionMetadata(timestamp=datetime.now()),\n",
    "            tx_data=json.dumps({\n",
    "                \"OBJECT_NAME\": base_sat.name,\n",
    "                \"OBJECT_ID\": 25544,\n",
    "                \"EPOCH\": observed_epoch.isoformat() + \"Z\",\n",
    "                \"MEAN_MOTION\": ((base_sat.model.no_kozai / (2 * np.pi)) * 1440) + noise[\"mean_motion\"],\n",
    "                \"ECCENTRICITY\": base_sat.model.ecco + noise[\"eccentricity\"],\n",
    "                \"INCLINATION\": (base_sat.model.inclo * 180 / np.pi) + noise[\"inclination\"]\n",
    "            })\n",
    "        )\n",
    "        test_dag.add_tx(dummy_tx)\n",
    "\n",
    "    test_transaction = Transaction(sender_address=test_satellite.id,\n",
    "                                   recipient_address=\"GROUND\",\n",
    "                                   sender_private_key=\"dummy_key\",\n",
    "                                   metadata=TransactionMetadata(timestamp=datetime.now()),\n",
    "                                   tx_data=\"\")\n",
    "\n",
    "    # Init PoISE mechanism\n",
    "    poise = ConsensusMechanism()\n",
    "\n",
    "    # Run consensus on a single satellite observation\n",
    "    consensus_result = poise.proof_of_inter_satellite_evaluation(\n",
    "        dag=test_dag,\n",
    "        sat_node=test_satellite,\n",
    "        transaction=test_transaction\n",
    "    )\n",
    "\n",
    "    # Output result\n",
    "    print(f\"\\nConsensus reached: {consensus_result}\")\n",
    "    print(f\"Updated Node Reputation: {test_satellite.reputation:.2f}\")\n",
    "    print(f\"Transaction:\\n{test_transaction}\")\n",
    "    last_index = list(test_dag.ledger)[-1]\n",
    "    penultimate_index = list(test_dag.ledger)[-2]\n",
    "    print(\"Final Tx:\")\n",
    "    print(test_dag.ledger[last_index])\n",
    "    print(\"Penultimate Tx:\")\n",
    "    print(test_dag.ledger[penultimate_index])\n",
    "\n",
    "run_consensus_test()\n"
   ]
  },
  {
   "cell_type": "code",
   "execution_count": null,
   "id": "102e3821",
   "metadata": {},
   "outputs": [
    {
     "name": "stdout",
     "output_type": "stream",
     "text": [
      "=== Running Consensus Test ===\n",
      "\n",
      "Consensus reached: True\n",
      "Updated Node Reputation: 0.10\n",
      "Transaction:\n",
      "Transaction(\n",
      "  sender_address=SAT-001,\n",
      "  recipient_address=GROUND,\n",
      "  timestamp=2025-07-28 17:34:13.968365,\n",
      "  tx_data='{\"OBJECT_NAME\": \"ISS (ZARYA)\", \"OBJECT_ID\": 25544, \"EPOCH\": \"2024-05-06T19:53:05Z\", \"MEAN_MOTION\": 15.509576740000002, \"ECCENTRICITY\": 0.000358, \"INCLINATION\": 51.639300000000006}',\n",
      "  consensus_reached=True,\n",
      "  is_confirmed=False,\n",
      "  is_rejected=False,\n",
      "  confirmation_score=0.1,\n",
      "  parent_hashes=['6f62136e20c8c475c1c6478579d179204450a55bca4a219a636860209570419c', 'Genesis Transaction 2'],\n",
      "  hash=53d3302c73...)\n",
      "\n",
      "Final Tx:\n",
      "[Transaction(\n",
      "  sender_address=SAT-001,\n",
      "  recipient_address=GROUND,\n",
      "  timestamp=2025-07-28 17:34:13.968365,\n",
      "  tx_data='{\"OBJECT_NAME\": \"ISS (ZARYA)\", \"OBJECT_ID\": 25544, \"EPOCH\": \"2024-05-06T19:53:05Z\", \"MEAN_MOTION\": 15.509576740000002, \"ECCENTRICITY\": 0.000358, \"INCLINATION\": 51.639300000000006}',\n",
      "  consensus_reached=True,\n",
      "  is_confirmed=False,\n",
      "  is_rejected=False,\n",
      "  confirmation_score=0.1,\n",
      "  parent_hashes=['6f62136e20c8c475c1c6478579d179204450a55bca4a219a636860209570419c', 'Genesis Transaction 2'],\n",
      "  hash=53d3302c73...)\n",
      "]\n",
      "Penultimate Tx:\n",
      "[Transaction(\n",
      "  sender_address=NODE-2,\n",
      "  recipient_address=GROUND,\n",
      "  timestamp=2025-07-28 17:34:13.966011,\n",
      "  tx_data='{\"OBJECT_NAME\": \"ISS (ZARYA)\", \"OBJECT_ID\": 25544, \"EPOCH\": \"2024-05-06T19:53:04.209282+00:00Z\", \"MEAN_MOTION\": 15.51876389591062, \"ECCENTRICITY\": 0.00036391624912724833, \"INCLINATION\": 51.63245281313853}',\n",
      "  consensus_reached=False,\n",
      "  is_confirmed=False,\n",
      "  is_rejected=False,\n",
      "  confirmation_score=0.1,\n",
      "  parent_hashes=['Genesis Transaction 1', 'Genesis Transaction 2'],\n",
      "  hash=46c56e1da5...)\n",
      "]\n"
     ]
    }
   ],
   "source": []
  }
 ],
 "metadata": {
  "kernelspec": {
   "display_name": "accord",
   "language": "python",
   "name": "python3"
  },
  "language_info": {
   "codemirror_mode": {
    "name": "ipython",
    "version": 3
   },
   "file_extension": ".py",
   "mimetype": "text/x-python",
   "name": "python",
   "nbconvert_exporter": "python",
   "pygments_lexer": "ipython3",
   "version": "3.13.5"
  }
 },
 "nbformat": 4,
 "nbformat_minor": 5
}
